OBJECT_NAME,OBJECT_ID,EPOCH,MEAN_MOTION,ECCENTRICITY,INCLINATION,RA_OF_ASC_NODE,ARG_OF_PERICENTER,MEAN_ANOMALY,EPHEMERIS_TYPE,CLASSIFICATION_TYPE,NORAD_CAT_ID,ELEMENT_SET_NO,REV_AT_EPOCH,BSTAR,MEAN_MOTION_DOT,MEAN_MOTION_DDOT
TDRS 3,1988-091B,2026-07-10T07:07:38.454240,1.00264401,.00369529,12.5846,340.8442,355.5827,9.6398,0,U,19548,999,12562,0,-.295E-5,0
FLTSATCOM 8 (USA 46),1989-077A,2026-07-10T19:20:10.156704,1.00265275,.0003562,12.4147,351.0196,68.2588,285.0808,0,U,20253,999,26079,0,-.366E-5,0
SKYNET 4C,1990-079A,2026-07-10T12:56:18.017088,0.98576745,.0002939,13.3308,349.6632,136.9634,215.3638,0,U,20776,999,26,0,-.31E-6,0
TDRS 5,1991-054B,2026-07-10T16:13:42.709728,1.00271685,.0007373,14.0681,353.6005,257.1411,113.5795,0,U,21639,999,12795,0,.85E-6,0
TDRS 6,1993-003B,2026-07-10T20:13:42.525120,1.00281351,.0008067,14.1832,356.8808,183.4575,5.7015,0,U,22314,999,12264,0,-.296E-5,0
UFO 2 (USA 95),1993-056A,2026-07-10T15:27:07.210944,1.00268244,.0002846,11.9053,3.4243,8.7196,176.8617,0,U,22787,999,11878,0,.126E-5,0
USA 99 (MILSTAR-1 1),1994-009A,2026-07-10T15:14:11.541120,0.98720214,.0001651,17.6603,27.4601,194.5435,169.2143,0,U,22988,999,3318,0,.1E-6,0
UFO 4 (USA 108),1995-003A,2026-07-10T17:50:45.883104,1.00275537,.0003105,9.6727,13.0276,94.4751,261.1596,0,U,23467,999,11518,0,-.19E-6,0
TDRS 7,1995-035B,2026-07-10T10:36:28.979712,1.00275148,.00116377,13.3674,348.0282,85.0368,103.6402,0,U,23613,999,11348,0,-.238E-5,0
USA 115 (MILSTAR-1 2),1995-060A,2026-07-10T11:27:57.313152,1.00273328,.00061925,14.0809,3.5680,123.8788,242.9148,0,U,23712,999,3312,0,-.202E-5,0
INMARSAT 3-F1,1996-020A,2026-07-10T14:44:48.766848,0.99979338,.0004312,10.6483,46.4161,83.0464,260.3279,0,U,23839,999,11048,0,.31E-6,0
INMARSAT 3-F2,1996-053A,2026-07-10T12:38:28.228704,0.99994015,.00064353,9.9081,53.6962,50.1631,140.6458,0,U,24307,999,10915,0,-.358E-5,0
INMARSAT 3-F3,1996-070A,2026-07-10T18:49:32.748384,0.99993526,.0003504,10.3678,49.4243,70.0021,110.0412,0,U,24674,999,10814,0,.64E-6,0
USA 134,1997-065A,2026-07-10T14:46:48.576000,1.00272573,.0002355,12.8108,21.5411,333.9336,42.3265,0,U,25019,999,3319,0,-.63E-6,0
INMARSAT 3-F5,1998-006B,2026-07-10T11:38:18.821184,1.00274910,.00043547,9.7424,53.0222,59.1525,296.8093,0,U,25153,999,10412,0,-.29E-5,0
ABS-6,1999-053A,2026-07-10T19:29:39.249312,1.00269312,.0003143,0.0523,269.7125,177.7877,292.6334,0,U,25924,999,9807,0,-.111E-5,0
UFO 10 (USA 146),1999-063A,2026-07-10T08:21:43.739424,1.00273413,.00013946,9.8571,27.0870,103.9573,259.6963,0,U,25967,999,9758,0,-.186E-5,0
ASIASTAR,2000-016A,2026-07-10T13:56:12.645024,1.00273445,.0003706,9.1813,57.8990,63.1513,121.5079,0,U,26107,999,9615,0,-.333E-5,0
USA 149 (DSP 20),2000-024A,2026-07-10T16:14:42.615168,1.00280321,.0001594,13.1875,11.6793,305.8996,49.9305,0,U,26356,999,3314,0,.96E-6,0
TDRS 8,2000-034A,2026-07-10T14:00:30.606048,1.00273241,.0004265,12.7195,31.1205,33.0196,159.3308,0,U,26388,999,9541,0,-.197E-5,0
NSS-11,2000-059A,2026-07-10T17:51:53.275104,1.00272600,.0002773,2.1844,81.1090,37.1225,254.4116,0,U,26554,999,4152,0,.32E-6,0
USA 153,2000-065A,2026-07-10T10:57:24.323328,1.00273940,.00020977,11.6632,35.2230,58.4609,133.4813,0,U,26575,999,3316,0,-.325E-5,0
AMC-6,2000-067A,2026-07-10T18:05:44.449152,1.00271035,.0003818,0.2094,83.5850,40.0381,301.4392,0,U,26580,999,9412,0,.97E-6,0
USA 157 (MILSTAR-2 2),2001-009A,2026-07-10T16:18:49.720032,1.00272253,.0040563,11.5676,19.6115,179.1344,184.4572,0,U,26715,999,3318,0,.109E-5,0
INTELSAT 902 (IS-902),2001-039A,2026-07-10T11:39:18.724896,1.00271489,.00044252,6.1741,71.4977,34.7826,306.8480,0,U,26900,999,9092,0,-.279E-5,0
USA 164 (MILSTAR-2 3),2002-001A,2026-07-10T05:08:24.305280,1.00275316,.00985124,11.2059,21.7598,8.9392,353.5139,0,U,27168,999,3319,0,.1E-5,0
INTELSAT 904 (IS-904),2002-007A,2026-07-10T11:44:40.710048,1.00271875,.00054412,6.9752,68.9011,22.8518,341.3603,0,U,27380,999,5200,0,-.222E-5,0
DIRECTV 5 (TEMPO 1),2002-023A,2026-07-10T16:30:11.130912,1.00271003,.000303,4.9348,75.0161,40.0572,310.9704,0,U,27426,999,8835,0,-.53E-6,0
INTELSAT 905 (IS-905),2002-027A,2026-07-10T18:05:07.006848,1.00271241,.0003543,6.8098,69.5124,44.4113,308.8250,0,U,27438,999,5159,0,.96E-6,0
GALAXY 3C (G-3C),2002-030A,2026-07-10T13:09:16.773984,1.00270931,.0001529,3.7909,77.6727,38.5614,274.7289,0,U,27445,999,4672,0,-.147E-5,0
INTELSAT 906 (IS-906),2002-041A,2026-07-10T19:02:30.649056,1.00272251,.000396,5.8606,72.6308,19.3457,186.4930,0,U,27513,999,8726,0,.16E-6,0
