TDRS 3                  
1 19548U 88091B   26191.29697285 -.00000295  00000+0  00000+0 0  9995
2 19548  12.5846 340.8442 0036952 355.5827   9.6398  1.00264401125629
FLTSATCOM 8 (USA 46)    
1 20253U 89077A   26191.80567311 -.00000366  00000+0  00000+0 0  9997
2 20253  12.4147 351.0196 0003562  68.2588 285.0808  1.00265275260794
SKYNET 4C               
1 20776U 90079A   26191.53909742 -.00000031  00000+0  00000+0 0  9998
2 20776  13.3308 349.6632 0002939 136.9634 215.3638  0.98576745   267
TDRS 5                  
1 21639U 91054B   26191.67618877  .00000085  00000+0  00000+0 0  9990
2 21639  14.0681 353.6005 0007373 257.1411 113.5795  1.00271685127951
TDRS 6                  
1 22314U 93003B   26191.84285330 -.00000296  00000+0  00000+0 0  9995
2 22314  14.1832 356.8808 0008067 183.4575   5.7015  1.00281351122649
UFO 2 (USA 95)          
1 22787U 93056A   26191.64383346  .00000126  00000+0  00000+0 0  9992
2 22787  11.9053   3.4243 0002846   8.7196 176.8617  1.00268244118782
USA 99 (MILSTAR-1 1)    
1 22988U 94009A   26191.63485580  .00000010  00000+0  00000+0 0  9998
2 22988  17.6603  27.4601 0001651 194.5435 169.2143  0.98720214 33182
UFO 4 (USA 108)         
1 23467U 95003A   26191.74358661 -.00000019  00000+0  00000+0 0  9997
2 23467   9.6727  13.0276 0003105  94.4751 261.1596  1.00275537115189
TDRS 7                  
1 23613U 95035B   26191.44200208 -.00000238  00000+0  00000+0 0  9998
2 23613  13.3674 348.0282 0011637  85.0368 103.6402  1.00275148113487
USA 115 (MILSTAR-1 2)   
1 23712U 95060A   26191.47774668 -.00000202  00000+0  00000+0 0  9996
2 23712  14.0809   3.5680 0006192 123.8788 242.9148  1.00273328 33121
INMARSAT 3-F1           
1 23839U 96020A   26191.61445332  .00000031  00000+0  00000+0 0  9991
2 23839  10.6483  46.4161 0004312  83.0464 260.3279  0.99979338110486
INMARSAT 3-F2           
1 24307U 96053A   26191.52671561 -.00000358  00000+0  00000+0 0  9996
2 24307   9.9081  53.6962 0006435  50.1631 140.6458  0.99994015109150
INMARSAT 3-F3           
1 24674U 96070A   26191.78440681  .00000064  00000+0  00000+0 0  9990
2 24674  10.3678  49.4243 0003504  70.0021 110.0412  0.99993526108143
USA 134                 
1 25019U 97065A   26191.61584000 -.00000063  00000+0  00000+0 0  9995
2 25019  12.8108  21.5411 0002355 333.9336  42.3265  1.00272573 33193
INMARSAT 3-F5           
1 25153U 98006B   26191.48494006 -.00000290  00000+0  00000+0 0  9993
2 25153   9.7424  53.0222 0004354  59.1525 296.8093  1.00274910104120
ABS-6                   
1 25924U 99053A   26191.81225983 -.00000111  00000+0  00000+0 0  9997
2 25924   0.0523 269.7125 0003143 177.7877 292.6334  1.00269312 98078
UFO 10 (USA 146)        
1 25967U 99063A   26191.34842291 -.00000186  00000+0  00000+0 0  9992
2 25967   9.8571  27.0870 0001394 103.9573 259.6963  1.00273413 97580
ASIASTAR                
1 26107U 00016A   26191.58070191 -.00000333  00000+0  00000+0 0  9991
2 26107   9.1813  57.8990 0003706  63.1513 121.5079  1.00273445 96155
USA 149 (DSP 20)        
1 26356U 00024A   26191.67688212  .00000096  00000+0  00000+0 0  9990
2 26356  13.1875  11.6793 0001594 305.8996  49.9305  1.00280321 33143
TDRS 8                  
1 26388U 00034A   26191.58368757 -.00000197  00000+0  00000+0 0  9998
2 26388  12.7195  31.1205 0004265  33.0196 159.3308  1.00273241 95413
NSS-11                  
1 26554U 00059A   26191.74436661  .00000032  00000+0  00000+0 0  9995
2 26554   2.1844  81.1090 0002773  37.1225 254.4116  1.00272600 41524
USA 153                 
1 26575U 00065A   26191.45653152 -.00000325  00000+0  00000+0 0  9995
2 26575  11.6632  35.2230 0002097  58.4609 133.4813  1.00273940 33163
AMC-6                   
1 26580U 00067A   26191.75398668  .00000097  00000+0  00000+0 0  9999
2 26580   0.2094  83.5850 0003818  40.0381 301.4392  1.00271035 94120
USA 157 (MILSTAR-2 2)   
1 26715U 01009A   26191.67974213  .00000109  00000+0  00000+0 0  9997
2 26715  11.5676  19.6115 0040563 179.1344 184.4572  1.00272253 33187
INTELSAT 902 (IS-902)   
1 26900U 01039A   26191.48563339 -.00000279  00000+0  00000+0 0  9997
2 26900   6.1741  71.4977 0004425  34.7826 306.8480  1.00271489 90929
USA 164 (MILSTAR-2 3)   
1 27168U 02001A   26191.21417020  .00000100  00000+0  00000+0 0  9992
2 27168  11.2059  21.7598 0098512   8.9392 353.5139  1.00275316 33192
INTELSAT 904 (IS-904)   
1 27380U 02007A   26191.48936007 -.00000222  00000+0  00000+0 0  9990
2 27380   6.9752  68.9011 0005441  22.8518 341.3603  1.00271875 52004
DIRECTV 5 (TEMPO 1)     
1 27426U 02023A   26191.68762883 -.00000053  00000+0  00000+0 0  9992
2 27426   4.9348  75.0161 0003030  40.0572 310.9704  1.00271003 88357
INTELSAT 905 (IS-905)   
1 27438U 02027A   26191.75355332  .00000096  00000+0  00000+0 0  9990
2 27438   6.8098  69.5124 0003543  44.4113 308.8250  1.00271241 51590
GALAXY 3C (G-3C)        
1 27445U 02030A   26191.54811081 -.00000147  00000+0  00000+0 0  9995
2 27445   3.7909  77.6727 0001529  38.5614 274.7289  1.00270931 46723
INTELSAT 906 (IS-906)   
1 27513U 02041A   26191.79341029  .00000016  00000+0  00000+0 0  9994
2 27513   5.8606  72.6308 0003960  19.3457 186.4930  1.00272251 87262
